#dP2023  5 14  6  0  0.00000000      96 __u+U ITR00 EXT  IAC
## 2262  21600.00000000   900.00000000 60078 0.2500000000000
+  118   C06C07C08C09C10C11C12C13C14C16C19C20C21C22C23C24C25
+        C26C27C28C29C30C32C33C34C35C36C37C38C39C40C41C42C43
+        C44C45C46E02E04E05E07E08E09E10E11E12E13E14E15E18E19
+        E21E24E25E26E27E30E31E33E34E36G01G02G03G04G05G06G07
+        G08G09G10G11G12G13G14G15G16G17G18G19G20G21G22G23G24
+        G25G26G27G28G29G30G31G32J02J03J04R01R02R03R04R05R07
+        R08R09R11R12R13R14R15R16R17R18R19R20R21R22R24R25  0
++        10  9  9  9 10  8  9  9  9  8  9  9  8  9  9  9  8
++         9  9  9  8  9  8  9  8  9  9  8  9  9 10 10  8  8
++        10 10 10  9  8  9  8  9  8 10  9  9  8  8  8  8  9
++         9  9  9  9  9  9  9  8  8  8  8  8  8  8  8  9  9
++         8  8  8  9  8  9  8  9  8  8  9  8  8  8  8  8  8
++         8  8  8  9  8  9  8  8 10 10 11  8  8  9  9  8  9
++         8 10  9  8  9  8 10  9  9  8 10 10  8  9  8  9  0
%c M  cc GPS ccc cccc cccc cccc cccc ccccc ccccc ccccc ccccc
%c cc cc ccc ccc cccc cccc cccc cccc ccccc ccccc ccccc ccccc
%f  0.0000000  0.000000000  0.00000000000  0.000000000000000
%f  0.0000000  0.000000000  0.00000000000  0.000000000000000
%i    0    0    0    0      0      0      0      0         0
%i    0    0    0    0      0      0      0      0         0
/* IAC                                ULTRA-RAPID PREDICTION
/* S/V CLOCKS ARE ALIGNED TO GNSS TIME                      
/* G:C1WC2W R:C1PC2P E:C1XC5X C:C2IC6I J:C1CC2S             
/* PCV:IGS20_2247 OL/AL:FES2004  NONE     YN ORB:CoN CLK:CoN
*  2023 05 15  1 30  0.00000000
PC06  -9378.035020  40682.123257  -4760.862631   -191.150268
PC07  -5461.601452  27759.719129  31339.432181    -20.026869
PC08 -19010.175207  25456.873950 -27820.805340    485.228320
PC09  -3762.865676  41369.987044   5665.982310    652.936381
PC10   3962.571378  30794.570590  29016.282010    -58.590420
PC11 -12558.156745  15048.468832  19931.306112    619.689903
PC12 -15309.865301  -5939.412368  22591.925482    639.732467
PC13 -11033.431089  26252.782826 -31040.870295    274.775605
PC14 -18027.980630   6692.463437 -20178.601938    260.851164
PC16 -11259.330616  39580.190082  -8209.780965     78.127285
PC19   9112.644934 -12987.507649  22988.050359   -910.286507
PC20  23253.423820   -516.393481  15463.841176    567.457325
PC21 -24410.853427 -13329.965245   2081.659312   -914.805443
PC22 -10988.221904 -18625.940323  17622.388971   -488.038888
PC23  -1021.785368  18716.931449  20678.857734   -928.830365
PC24 -24804.695875   8547.180833  -9550.242371    -53.691006
PC25 -17238.815131  20116.494954   8791.037977    126.702004
PC26 -17658.391733  -5780.814726 -20843.825801   -120.402632
PC27  14106.141573  14975.979529 -18872.375659    140.307915
PC28   5388.004282  26867.582068  -5282.152669    103.796058
PC29   6869.355904 -23593.497832 -13238.192809    120.488986
PC30  15361.448209  -5441.469708 -22666.753824     -0.248762
PC32  24532.452543  13153.790509  -2097.126928   -562.324282
PC33  -9085.710335  13025.041318 -22936.084383   -881.793851
PC34 -15104.373940   6893.535226  22410.122181    170.871036
PC35  -5904.183639 -26914.108387   4537.401668    627.395296
PC36  18229.710312 -19495.664459  -8115.110454   -441.329164
PC37  16579.600283   7190.567760  21273.006029   -784.330672
PC38 -25181.227121  26845.357769 -20662.302354     78.412564
PC39 -12294.696762  37694.067839 -13979.345668     -2.930212
PC40  -8330.703618  22430.258942  34733.058258    -23.214763
PC41  10455.069561  18581.194383 -17955.072084   -944.650894
PC42 -23875.616432   -487.419278 -14365.602102   -691.740003
PC43  -7478.792663  23037.416086  13825.613808     21.448716
PC44 -14690.122432 -14682.703891  18635.715988    106.864389
PC45    593.361412 -18428.184267 -20940.579204    -97.665822
PC46  24812.300627  -9739.450071   8201.454856    -54.092596
PE02    137.323811 -16741.707670 -24415.242435     38.178644
PE04  19117.218329  21714.343031   6283.756399   -122.473791
PE05   9639.458292 -15419.261188  23364.923918    -67.396131
PE07 -20386.196639  -4539.636709 -20958.877124    -45.114348
PE08 -18993.888275 -21881.790487  -6008.188892    -83.151725
PE09  20353.655253   4764.245958  20972.582113    -14.973147
PE10  15645.723690   4370.579023 -24756.831274   -533.777700
PE11  19251.014585  -7119.183800 -21351.318188   1926.248343
PE12  10075.730070  14213.502900 -23934.267294   -538.953202
PE13 -19014.638509   6334.478354  21775.822749    -19.167392
PE14 -10120.004005  14393.221415  18528.909202    225.373019
PE15  -9775.866972 -14516.850905  23873.248739    -21.838997
PE18  18859.733988  -6613.649830 -23675.169672     64.865871
PE19   4734.108240  25633.863734 -14010.331445  -2532.365580
PE21 -20110.306573  12849.881305  17507.255689   -529.145545
PE24  29575.423750   -723.590280    579.197473    -99.204034
PE25  20400.828111 -12703.252558 -17276.061010   -605.068612
PE26 -16763.444584  23597.040644   6179.740940    104.442696
PE27 -29574.966533   1306.844640    110.509354    -49.658303
PE30 -21028.084464 -11283.242858 -17530.798034   -173.550986
PE31  21514.756103  10887.454793  17172.236336   -523.759642
PE33  -5147.323696  26616.856317 -11870.116100   -444.453176
PE34   5000.508770 -26594.653142  11982.519082    -45.455268
PE36  17009.136395 -23214.280717  -6959.581307    -56.216900
PG01 -14226.619598  22136.923471   1294.469110    185.297274
PG02 -15162.744805  -3557.387142  22108.467251   -596.136140
PG03 -13797.179332  12715.684960 -18879.710537   -303.059061
PG04  -4577.486015  18566.598550 -18371.720947     41.668254
PG05  25448.209960  -5168.320224   5696.665516   -127.221344
PG06  10871.586244  10034.999635 -21990.040832    588.043138
PG07  -3349.107521  23302.303779  12259.506961    178.052446
PG08 -13253.340904   7520.018588  21685.838001   -122.456360
PG09   5061.504408  23535.749061 -11242.055172   -158.680368
PG10 -17326.620370 -11346.095985  16981.889676    -36.952525
PG11  18334.111872  -4673.274017 -18618.984677   -197.158659
PG12  17056.731076 -10920.722270 -17417.299240   -376.118413
PG13  16044.393853   1173.228832  20995.345308    520.049111
PG14  14168.254024  13391.626970  18114.977666     57.151773
PG15  12189.665059  -9762.619148  21026.149162     39.610813
PG16 -26631.420309   -393.251572   2724.813077   -500.941182
PG17  13362.527755  22679.846307  -2650.667663    714.816411
PG18   1593.866540 -22019.878176  14651.163406   -266.580493
PG19  16517.010904  17610.337295 -11628.094657    316.997382
PG20  26123.915174  -1756.768737  -3758.667548    433.544896
PG21 -16662.951157  16991.862163  11379.990561    153.820830
PG22 -17294.206642 -14902.578404 -13256.355053    481.438910
PG23  -4566.243420 -14623.775664  21716.489655     24.276480
PG24  14670.809554 -20889.497370   6139.926546   -188.971974
PG25   4572.931388 -15321.777761 -21488.905728    442.870780
PG26 -24402.881699  -5392.139686  -9595.404580    240.786278
PG27 -17922.809956  -4840.430848  18899.070945     37.351681
PG28 -10483.822938 -11957.980972 -21297.199093     77.593899
PG29   -716.712882 -22745.699975 -13679.215234   -599.435400
PG30   5914.689268  17604.891048  19003.063156   -517.141215
PG31 -16608.435705  -1215.353604 -20958.458467   -216.121702
PG32 -16247.187318 -20493.504400  -5031.786862   -476.668346
PJ02 -29666.149220  23967.826334  22984.982448      0.024706
PJ03 -29296.949796  26688.790374  19399.164203      4.163488
PJ04 -27739.244650  19456.537939 -19905.794100     94.549243
PR01  19265.038775  16062.297243  -4683.454072     57.505727
PR02  20382.249625   7293.490863  13491.204090    -22.831070
PR03   9918.590202  -6059.317693  22751.394363     77.854380
PR04  -5790.116168 -15556.619117  19405.708990    187.212595
PR05 -18328.898707 -16885.629559   5507.296571    112.566757
PR07  -9296.353303   6531.024594 -22796.618943     55.924103
PR08   6038.629909  15639.558482 -19150.619927    -70.796200
PR09 -22785.971457   5308.095499 -10048.064966    120.209056
PR11  -7760.195465  13945.724689  19902.926710    -56.114187
PR12  11625.649954   6243.892778  21851.535148     27.271076
PR13  22242.234764  -4057.157348  11797.268094    -35.058500
PR14  20614.072398 -13221.645462  -7161.263248     24.671985
PR15   6664.466826 -13729.945412 -20421.130685     89.354528
PR16 -11293.452187  -6213.750998 -21995.435469     14.569939
PR17   9066.984925 -18347.313307 -15200.859885    630.043708
PR18   2914.550721 -25365.220662    529.985688     81.553723
PR19  -3591.981883 -20359.981437  14935.181251   -232.638196
PR20 -10383.921758   -546.699594  23292.663721    -92.884987
PR21  -8719.021273  19477.448838  13984.534185     -7.520809
PR22  -3337.499296  25239.114707  -1424.866771     81.695831
PR24  10941.214225   -487.078564 -23026.597891    170.405816
PR25 -10144.811282  17790.683455  15218.953693     61.165411
EOF
